ONEWEB-0387             
1 49313U 21090AL  24220.51004767  .00000018  00000+0  13145-4 0  9998
2 49313  87.9184  49.5136 0002143  92.1635 267.9744 13.20769535140233
ONEWEB-0388             
1 49314U 21090AM  24220.69590133  .00000070  00000+0  14215-3 0  9991
2 49314  87.9110  79.9715 0001839  78.2213 281.9126 13.19724132138218
ONEWEB-0389             
1 50469U 21132A   24220.86158522  .00000074  00000+0  15798-3 0  9993
2 50469  87.9192 140.9524 0002377  84.0735 276.0667 13.17648564130040
ONEWEB-0390             
1 50470U 21132B   24220.78727411  .00000147  00000+0  34547-3 0  9999
2 50470  87.9192 140.9747 0001934  87.3682 272.7671 13.17650417130031
ONEWEB-0391             
1 50471U 21132C   24220.86482721  .00000102  00000+0  22975-3 0  9994
2 50471  87.9201 140.9466 0002381  81.4813 278.6588 13.17650268130046
ONEWEB-0392             
1 50472U 21132D   24219.83080364  .00000019  00000+0  15552-4 0  9998
2 50472  87.9183 141.1442 0002526  84.7958 275.3462 13.17650219128655
ONEWEB-0393             
1 50473U 21132E   24220.79225291  .00000076  00000+0  16258-3 0  9992
2 50473  87.9196 140.9355 0002227  81.7989 278.3395 13.17652019130065
ONEWEB-0394             
1 50474U 21132F   24220.23080722  .00000812  00000+0  20276-2 0  9992
2 50474  87.9122 110.6221 0002090  77.0237 283.1128 13.18682116132111
